{
  "type": "FeatureCollection",
  "features": [
    {
      "type": "Feature",
      "properties": {
        "norad_id": 34350,
        "name": "IRIDIUM 33 DEB",
        "group": "iridium-33-debris",
        "lat": 76.58733517654349,
        "lon": 162.55131309496434,
        "alt_km": 716.8584482827919,
        "timestamp": "2025-12-23T09:49:07.468015+00:00",
        "meta_object_name": "IRIDIUM 33 DEB",
        "meta_object_id": "1997-051ES",
        "meta_epoch": "2025-12-22T12:19:49.336608",
        "meta_mean_motion": 14.45408788,
        "meta_eccentricity": 0.0023434,
        "meta_inclination": 86.3272,
        "meta_ra_of_asc_node": 358.5656,
        "meta_arg_of_pericenter": 105.2385,
        "meta_mean_anomaly": 21.6906,
        "meta_ephemeris_type": 0,
        "meta_classification_type": "U",
        "meta_norad_cat_id": 34350,
        "meta_element_set_no": 999,
        "meta_rev_at_epoch": 88434,
        "meta_bstar": 0.00030728389,
        "meta_mean_motion_dot": 1.104e-05,
        "meta_mean_motion_ddot": 0,
        "tle_line1": "1 34350U 97051ES  25356.51376547  .00001104  00000+0  30728-3 0  9994",
        "tle_line2": "2 34350  86.3272 358.5656 0023434 105.2385  21.6906 14.45408788884343"
      },
      "geometry": {
        "type": "Point",
        "coordinates": [
          162.55131309496434,
          76.58733517654349
        ]
      }
    },
    {
      "type": "Feature",
      "properties": {
        "norad_id": 34366,
        "name": "IRIDIUM 33 DEB",
        "group": "iridium-33-debris",
        "lat": 44.07853501718823,
        "lon": 48.19823881057149,
        "alt_km": 700.8411633703781,
        "timestamp": "2025-12-23T09:49:07.468025+00:00",
        "meta_object_name": "IRIDIUM 33 DEB",
        "meta_object_id": "1997-051FJ",
        "meta_epoch": "2025-12-22T10:47:10.372704",
        "meta_mean_motion": 14.54128755,
        "meta_eccentricity": 0.00230356,
        "meta_inclination": 86.3686,
        "meta_ra_of_asc_node": 45.09,
        "meta_arg_of_pericenter": 109.4758,
        "meta_mean_anomaly": 314.4093,
        "meta_ephemeris_type": 0,
        "meta_classification_type": "U",
        "meta_norad_cat_id": 34366,
        "meta_element_set_no": 999,
        "meta_rev_at_epoch": 88323,
        "meta_bstar": 0.000894432,
        "meta_mean_motion_dot": 3.813e-05,
        "meta_mean_motion_ddot": 0,
        "tle_line1": "1 34366U 97051FJ  25356.44942561  .00003813  00000+0  89443-3 0  9995",
        "tle_line2": "2 34366  86.3686  45.0900 0023035 109.4758 314.4093 14.54128755883236"
      },
      "geometry": {
        "type": "Point",
        "coordinates": [
          48.19823881057149,
          44.07853501718823
        ]
      }
    },
    {
      "type": "Feature",
      "properties": {
        "norad_id": 34375,
        "name": "IRIDIUM 33 DEB",
        "group": "iridium-33-debris",
        "lat": 13.857394510297771,
        "lon": 179.28194759285816,
        "alt_km": 818.5454966229227,
        "timestamp": "2025-12-23T09:49:07.468035+00:00",
        "meta_object_name": "IRIDIUM 33 DEB",
        "meta_object_id": "1997-051FT",
        "meta_epoch": "2025-12-22T12:02:26.342592",
        "meta_mean_motion": 14.18009533,
        "meta_eccentricity": 0.01037059,
        "meta_inclination": 86.4323,
        "meta_ra_of_asc_node": 178.7659,
        "meta_arg_of_pericenter": 96.2041,
        "meta_mean_anomaly": 329.6113,
        "meta_ephemeris_type": 0,
        "meta_classification_type": "U",
        "meta_norad_cat_id": 34375,
        "meta_element_set_no": 999,
        "meta_rev_at_epoch": 86850,
        "meta_bstar": 0.00038502204,
        "meta_mean_motion_dot": 8.51e-06,
        "meta_mean_motion_ddot": 0,
        "tle_line1": "1 34375U 97051FT  25356.50169378  .00000851  00000+0  38502-3 0  9998",
        "tle_line2": "2 34375  86.4323 178.7659 0103705  96.2041 329.6113 14.18009533868507"
      },
      "geometry": {
        "type": "Point",
        "coordinates": [
          179.28194759285816,
          13.857394510297771
        ]
      }
    },
    {
      "type": "Feature",
      "properties": {
        "norad_id": 34376,
        "name": "IRIDIUM 33 DEB",
        "group": "iridium-33-debris",
        "lat": -60.2621445350085,
        "lon": -4.765775596492325,
        "alt_km": 711.2316021607467,
        "timestamp": "2025-12-23T09:49:07.468046+00:00",
        "meta_object_name": "IRIDIUM 33 DEB",
        "meta_object_id": "1997-051FU",
        "meta_epoch": "2025-12-22T17:40:39.041472",
        "meta_mean_motion": 14.62694295,
        "meta_eccentricity": 0.00282683,
        "meta_inclination": 86.2978,
        "meta_ra_of_asc_node": 2.0446,
        "meta_arg_of_pericenter": 133.8099,
        "meta_mean_anomaly": 226.5457,
        "meta_ephemeris_type": 0,
        "meta_classification_type": "U",
        "meta_norad_cat_id": 34376,
        "meta_element_set_no": 999,
        "meta_rev_at_epoch": 88153,
        "meta_bstar": 0.0014444618,
        "meta_mean_motion_dot": 7.418e-05,
        "meta_mean_motion_ddot": 0,
        "tle_line1": "1 34376U 97051FU  25356.73656298  .00007418  00000+0  14445-2 0  9991",
        "tle_line2": "2 34376  86.2978   2.0446 0028268 133.8099 226.5457 14.62694295881534"
      },
      "geometry": {
        "type": "Point",
        "coordinates": [
          -4.765775596492325,
          -60.2621445350085
        ]
      }
    },
    {
      "type": "Feature",
      "properties": {
        "norad_id": 34486,
        "name": "IRIDIUM 33 DEB",
        "group": "iridium-33-debris",
        "lat": -3.519264511000146,
        "lon": 6.875934693460232,
        "alt_km": 581.134408750996,
        "timestamp": "2025-12-23T09:49:07.468056+00:00",
        "meta_object_name": "IRIDIUM 33 DEB",
        "meta_object_id": "1997-051GB",
        "meta_epoch": "2025-12-22T11:56:52.779840",
        "meta_mean_motion": 14.9620636,
        "meta_eccentricity": 0.00139165,
        "meta_inclination": 86.3926,
        "meta_ra_of_asc_node": 7.5191,
        "meta_arg_of_pericenter": 84.4454,
        "meta_mean_anomaly": 47.0404,
        "meta_ephemeris_type": 0,
        "meta_classification_type": "U",
        "meta_norad_cat_id": 34486,
        "meta_element_set_no": 999,
        "meta_rev_at_epoch": 89132,
        "meta_bstar": 0.002364133,
        "meta_mean_motion_dot": 0.00026794,
        "meta_mean_motion_ddot": 0,
        "tle_line1": "1 34486U 97051GB  25356.49783310  .00026794  00000+0  23641-2 0  9998",
        "tle_line2": "2 34486  86.3926   7.5191 0013916  84.4454  47.0404 14.96206360891322"
      },
      "geometry": {
        "type": "Point",
        "coordinates": [
          6.875934693460232,
          -3.519264511000146
        ]
      }
    },
    {
      "type": "Feature",
      "properties": {
        "norad_id": 34487,
        "name": "IRIDIUM 33 DEB",
        "group": "iridium-33-debris",
        "lat": 32.726664086024805,
        "lon": -174.57223743122526,
        "alt_km": 731.3706056803048,
        "timestamp": "2025-12-23T09:49:07.468066+00:00",
        "meta_object_name": "IRIDIUM 33 DEB",
        "meta_object_id": "1997-051GC",
        "meta_epoch": "2025-12-22T12:14:23.193024",
        "meta_mean_motion": 14.43228274,
        "meta_eccentricity": 0.00332296,
        "meta_inclination": 86.3429,
        "meta_ra_of_asc_node": 8.1704,
        "meta_arg_of_pericenter": 97.9681,
        "meta_mean_anomaly": 60.3024,
        "meta_ephemeris_type": 0,
        "meta_classification_type": "U",
        "meta_norad_cat_id": 34487,
        "meta_element_set_no": 999,
        "meta_rev_at_epoch": 88389,
        "meta_bstar": 0.00017391804,
        "meta_mean_motion_dot": 6.09e-06,
        "meta_mean_motion_ddot": 0,
        "tle_line1": "1 34487U 97051GC  25356.50999066  .00000609  00000+0  17392-3 0  9992",
        "tle_line2": "2 34487  86.3429   8.1704 0033229  97.9681  60.3024 14.43228274883897"
      },
      "geometry": {
        "type": "Point",
        "coordinates": [
          -174.57223743122526,
          32.726664086024805
        ]
      }
    },
    {
      "type": "Feature",
      "properties": {
        "norad_id": 34488,
        "name": "IRIDIUM 33 DEB",
        "group": "iridium-33-debris",
        "lat": -50.17464253086554,
        "lon": 124.93765785385297,
        "alt_km": 483.6293875378251,
        "timestamp": "2025-12-23T09:49:07.468076+00:00",
        "meta_object_name": "IRIDIUM 33 DEB",
        "meta_object_id": "1997-051GD",
        "meta_epoch": "2025-12-22T20:16:29.836992",
        "meta_mean_motion": 15.31851895,
        "meta_eccentricity": 0.00102762,
        "meta_inclination": 86.3272,
        "meta_ra_of_asc_node": 300.8002,
        "meta_arg_of_pericenter": 36.0994,
        "meta_mean_anomaly": 324.0947,
        "meta_ephemeris_type": 0,
        "meta_classification_type": "U",
        "meta_norad_cat_id": 34488,
        "meta_element_set_no": 999,
        "meta_rev_at_epoch": 89394,
        "meta_bstar": 0.0043586742,
        "meta_mean_motion_dot": 0.00136379,
        "meta_mean_motion_ddot": 0,
        "tle_line1": "1 34488U 97051GD  25356.84478978  .00136379  00000+0  43587-2 0  9992",
        "tle_line2": "2 34488  86.3272 300.8002 0010276  36.0994 324.0947 15.31851895893945"
      },
      "geometry": {
        "type": "Point",
        "coordinates": [
          124.93765785385297,
          -50.17464253086554
        ]
      }
    }
  ]
}